[{"OBJECT_NAME":"STARLINK-35661","OBJECT_ID":"2025-257H","EPOCH":"2026-03-09T17:33:34.030368","MEAN_MOTION":15.30203999,"ECCENTRICITY":9.818e-5,"INCLINATION":53.1605,"RA_OF_ASC_NODE":216.5656,"ARG_OF_PERICENTER":88.2084,"MEAN_ANOMALY":271.9029,"EPHEMERIS_TYPE":0,"CLASSIFICATION_TYPE":"U","NORAD_CAT_ID":66387,"ELEMENT_SET_NO":999,"REV_AT_EPOCH":1974,"BSTAR":0.00099652627,"MEAN_MOTION_DOT":0.00029275,"MEAN_MOTION_DDOT":0},{"OBJECT_NAME":"COSMOS 2251 DEB","OBJECT_ID":"1993-036BN","EPOCH":"2026-03-09T17:54:27.582912","MEAN_MOTION":15.31852549,"ECCENTRICITY":0.0043021,"INCLINATION":74.0291,"RA_OF_ASC_NODE":318.0178,"ARG_OF_PERICENTER":323.0874,"MEAN_ANOMALY":36.7369,"EPHEMERIS_TYPE":0,"CLASSIFICATION_TYPE":"U","NORAD_CAT_ID":33821,"ELEMENT_SET_NO":999,"REV_AT_EPOCH":76330,"BSTAR":0.0011195846,"MEAN_MOTION_DOT":0.00035571,"MEAN_MOTION_DDOT":0}]
